     2.10           N: GPS NAV DATA                         RINEX VERSION / TYPE
teqc  2014Jan16     CORS-ADM Account    20150319 12:45:04UTCPGM / RUN BY / DATE
Solaris x86 5.10|AMD64|cc SC5.8 -xarch=amd64|=+|=+          COMMENT
     2.10           N: GPS NAV DATA                         COMMENT
rvacn.e(1404.07)                        2015-03-19T12:43 GMTCOMMENT
This file contains the validated broadcast navigation       COMMENT
messages from the following files:                          COMMENT
algo0740.15n, alic0740.15n, alrt0740.15n, amc20740.15n,     COMMENT
bjfs0740.15n, bor10740.15n, cas10740.15n, cedu0740.15n,     COMMENT
chpi0740.15n, chur0740.15n, coco0740.15n, conz0740.15n,     COMMENT
cord0740.15n, cro10740.15n, daej0740.15n, darw0740.15n,     COMMENT
dav10740.15n, drao0740.15n, dubo0740.15n, flin0740.15n,     COMMENT
glps0740.15n, glsv0740.15n, gode0740.15n, gold0740.15n,     COMMENT
gras0740.15n, guam0740.15n, harb0740.15n, hlfx0740.15n,     COMMENT
hnlc0740.15n, hob20740.15n, hofn0740.15n, holm0740.15n,     COMMENT
hrao0740.15n, hyde0740.15n, iisc0740.15n, ispa0740.15n,     COMMENT
joze0740.15n, kerg0740.15n, kokb0740.15n, lhaz0740.15n,     COMMENT
madr0740.15n, mana0740.15n, mate0740.15n, maw10740.15n,     COMMENT
mbar0740.15n, mcm40740.15n, mdvj0740.15n, nico0740.15n,     COMMENT
nklg0740.15n, nlib0740.15n, not10740.15n, nrc10740.15n,     COMMENT
nya10740.15n, nyal0740.15n, ohi30740.15n, onsa0740.15n,     COMMENT
pdel0740.15n, pert0740.15n, pie10740.15n, pimo0740.15n,     COMMENT
pol20740.15n, polv0740.15n, quin0740.15n, rabt0740.15n,     COMMENT
reyk0740.15n, sch20740.15n, sey10740.15n, sfer0740.15n,     COMMENT
stjo0740.15n, suth0740.15n, syog0740.15n, thti0740.15n,     COMMENT
tidb0740.15n, tow20740.15n, tro10740.15n, tskb0740.15n,     COMMENT
wes20740.15n, whit0740.15n, will0740.15n, wsrt0740.15n,     COMMENT
wtzr0740.15n, wuhn0740.15n, yell0740.15n, zimm0740.15n      COMMENT
    2.1420D-08  7.4510D-09 -1.1920D-07  0.0000D+00          ION ALPHA
    1.2290D+05  0.0000D+00 -2.6210D+05  1.9660D+05          ION BETA
   -9.313225746150D-10 1.776356839400D-15   233472     1836 DELTA-UTC: A0,A1,T,W
                                                            END OF HEADER
24 15  3 15 15 59 44.0-4.502572119236D-05-6.821210263297D-13 0.000000000000D+00
    1.100000000000D+01 6.934375000000D+01 4.603763193788D-09 1.208121913893D+00
    3.794208168983D-06 3.165731206536D-03 9.097158908844D-06 5.153685079575D+03
    5.758400000000D+04 1.862645149231D-09 2.448162434215D+00 6.705522537231D-08
    9.542229503246D-01 1.991875000000D+02 3.201770698716D-01-8.121052560151D-09
   -1.942938074027D-10 1.000000000000D+00 1.836000000000D+03 0.000000000000D+00
    2.000000000000D+00 0.000000000000D+00 2.328306436539D-09 1.100000000000D+01
    5.307000000000D+04 4.000000000000D+00
25 15  3 15 15 59 44.0-1.115631312132D-05-3.069544618484D-12 0.000000000000D+00
    1.300000000000D+01 3.118750000000D+01 4.323751530178D-09-7.778853622306D-01
    1.553446054459D-06 4.353862139396D-03 3.810971975327D-06 5.153707813263D+03
    5.758400000000D+04 5.215406417847D-08-2.774205741216D+00 1.303851604462D-08
    9.781269790748D-01 3.143750000000D+02 6.719507608292D-01-8.294631218970D-09
    4.607334771129D-11 1.000000000000D+00 1.836000000000D+03 0.000000000000D+00
    2.000000000000D+00 0.000000000000D+00 5.122274160385D-09 1.300000000000D+01
    5.565000000000D+04 4.000000000000D+00
30 15  3 15 15 59 44.0-7.975427433848D-05 2.614797267597D-12 0.000000000000D+00
    2.000000000000D+01 6.015625000000D+01 4.456257141072D-09 5.571767080749D-01
    2.969056367874D-06 1.090929959901D-03 9.581446647644D-06 5.153767097473D+03
    5.758400000000D+04-1.676380634308D-08 2.538114503457D+00-1.117587089539D-08
    9.567639205319D-01 1.895312500000D+02 2.867646390240D+00-8.075693891385D-09
   -1.646497105323D-10 1.000000000000D+00 1.836000000000D+03 0.000000000000D+00
    2.000000000000D+00 0.000000000000D+00 3.259629011154D-09 2.000000000000D+01
    5.205000000000D+04
 1 15  3 15 16  0  0.0-7.933937013149D-06 4.547473508865D-13 0.000000000000D+00
    1.000000000000D+02-4.271875000000D+01 4.408755138741D-09 1.001851731603D+00
   -2.300366759300D-06 3.952437895350D-03 1.063570380211D-05 5.153672662735D+03
    5.760000000000D+04 6.332993507385D-08-6.723993207707D-01 2.793967723846D-08
    9.621333316637D-01 1.762500000000D+02 3.871566907445D-01-7.960331949164D-09
    2.589393699459D-10 1.000000000000D+00 1.836000000000D+03 0.000000000000D+00
    2.000000000000D+00 0.000000000000D+00 5.587935447693D-09 1.000000000000D+02
    5.040000000000D+04
 2 15  3 15 16  0  0.0 5.537169054151D-04 2.273736754432D-12 0.000000000000D+00
    1.030000000000D+02-3.743750000000D+01 4.854487922756D-09 1.531967540506D+00
   -1.886859536171D-06 1.451512635686D-02 1.103803515434D-05 5.153790321350D+03
    5.760000000000D+04-3.576278686523D-07-7.083630010194D-01 2.793967723846D-08
    9.407195420477D-01 1.560625000000D+02-2.301484557818D+00-8.312846411229D-09
    2.175090663137D-10 1.000000000000D+00 1.836000000000D+03 0.000000000000D+00
    2.000000000000D+00 0.000000000000D+00-2.048909664154D-08 1.030000000000D+02
    5.751000000000D+04
 3 15  3 15 16  0  0.0 2.561798319221D-04 1.705302565824D-11 0.000000000000D+00
    5.100000000000D+01 2.390625000000D+01 4.960563959600D-09-3.079115631240D+00
    1.262873411179D-06 9.349618339911D-04 7.368624210358D-06 5.153722850800D+03
    5.760000000000D+04 1.862645149231D-09 3.677445051433D-01-9.313225746155D-09
    9.596873765228D-01 2.403125000000D+02-2.886324212909D+00-8.168554721522D-09
    2.867976689469D-10 1.000000000000D+00 1.836000000000D+03 0.000000000000D+00
    2.000000000000D+00 0.000000000000D+00 1.396983861923D-09 5.100000000000D+01
    5.040000000000D+04
 4 15  3 15 16  0  0.0-9.078066796064D-06-6.821210263297D-13 0.000000000000D+00
    1.120000000000D+02-4.140625000000D+01 4.930919678311D-09 7.772310092141D-01
   -2.248212695122D-06 1.107363239862D-02 1.085735857487D-05 5.153723701477D+03
    5.760000000000D+04-7.450580596924D-08-6.929993651309D-01 9.313225746155D-08
    9.397736835861D-01 1.600312500000D+02 1.052768329101D+00-8.379634759709D-09
    2.446530479243D-10 1.000000000000D+00 1.836000000000D+03 0.000000000000D+00
    2.000000000000D+00 0.000000000000D+00-6.519258022308D-09 1.120000000000D+02
    5.415000000000D+04 4.000000000000D+00
 5 15  3 15 16  0  0.0-2.665645442903D-04 5.002220859751D-12 0.000000000000D+00
    7.500000000000D+01 2.559375000000D+01 5.274862576342D-09-2.377130006538D+00
    1.130625605583D-06 4.026492009871D-03 6.824731826782D-06 5.153784288406D+03
    5.760000000000D+04 3.911554813385D-08 3.616721765036D-01-1.452863216400D-07
    9.469460198284D-01 2.419062500000D+02 4.111302768606D-01-8.391063807203D-09
    2.557249376844D-10 1.000000000000D+00 1.836000000000D+03 0.000000000000D+00
    2.000000000000D+00 0.000000000000D+00-1.071020960808D-08 7.500000000000D+01
    5.041800000000D+04 4.000000000000D+00
 6 15  3 15 16  0  0.0 1.091528683901D-04 1.057287590811D-11 0.000000000000D+00
    6.700000000000D+01-3.831250000000D+01 4.275535037124D-09-3.076112485712D+00
   -1.827254891396D-06 2.746875397861D-04 1.055933535099D-05 5.153720218658D+03
    5.760000000000D+04-2.048909664154D-08-6.809215076168D-01-5.587935447693D-08
    9.620230188631D-01 1.742500000000D+02 2.951482629510D+00-7.907829058240D-09
    3.121558567187D-10 1.000000000000D+00 1.836000000000D+03 0.000000000000D+00
    2.000000000000D+00 0.000000000000D+00 4.656612873077D-09 6.700000000000D+01
    5.040000000000D+04
 7 15  3 15 16  0  0.0 4.478888586164D-04 2.955857780762D-12 0.000000000000D+00
    4.200000000000D+01 5.496875000000D+01 4.244105511475D-09 4.003088714084D-01
    2.941116690636D-06 8.072013384663D-03 9.553506970406D-06 5.153733472824D+03
    5.760000000000D+04 4.470348358154D-08 2.487768691243D+00 7.078051567078D-08
    9.710229055159D-01 1.968125000000D+02-2.756322916507D+00-8.038192333970D-09
   -2.007226468370D-10 1.000000000000D+00 1.836000000000D+03 0.000000000000D+00
    2.000000000000D+00 0.000000000000D+00-1.117587089539D-08 4.200000000000D+01
    5.040000000000D+04
 8 15  3 15 16  0  0.0 1.851608976722D-05 3.410605131648D-13 0.000000000000D+00
    5.400000000000D+01 8.734375000000D+01 3.599792802962D-09 1.956459322590D+00
    4.485249519348D-06 1.445656036958D-02 1.033395528793D-05 5.153582155228D+03
    5.760000000000D+04-2.868473529816D-07 2.593590434366D+00 1.154839992523D-07
    9.946808100026D-01 2.007812500000D+02-2.685335529152D+00-7.701392222470D-09
   -1.117903708034D-10 1.000000000000D+00 1.836000000000D+03 0.000000000000D+00
    2.000000000000D+00 6.300000000000D+01-5.122274160385D-09 5.400000000000D+01
    5.041800000000D+04 4.000000000000D+00
 9 15  3 15 16  0  0.0-1.134779304266D-04-9.890754881781D-12 0.000000000000D+00
    3.700000000000D+01-1.171875000000D+01 4.915919227244D-09 2.755949253583D+00
   -4.544854164124D-07 4.006396047771D-04 8.026137948036D-06 5.153633300781D+03
    5.760000000000D+04 1.862645149231D-09 1.411677838940D+00-1.490116119385D-08
    9.577068356024D-01 2.254062500000D+02 2.269209212964D+00-8.230342629645D-09
   -4.050168811442D-10 1.000000000000D+00 1.836000000000D+03 0.000000000000D+00
    2.000000000000D+00 0.000000000000D+00 4.656612873077D-10 3.700000000000D+01
    5.040000000000D+04
10 15  3 15 16  0  0.0-1.672487705946D-04-1.477928890381D-12 0.000000000000D+00
    6.700000000000D+01 2.543750000000D+01 5.303435024473D-09-2.008201374539D+00
    1.143664121628D-06 1.458847499453D-02 6.414949893951D-06 5.153666198730D+03
    5.760000000000D+04 1.974403858185D-07 3.771841010832D-01-2.607703208923D-08
    9.417298654575D-01 2.405937500000D+02 9.249654284542D-01-8.281416441491D-09
    4.210889692491D-10 1.000000000000D+00 1.836000000000D+03 0.000000000000D+00
    2.800000000000D+00 0.000000000000D+00-3.259629011154D-09 6.700000000000D+01
    5.232000000000D+04
